OBJECT_NAME,OBJECT_ID,EPOCH,MEAN_MOTION,ECCENTRICITY,INCLINATION,RA_OF_ASC_NODE,ARG_OF_PERICENTER,MEAN_ANOMALY,EPHEMERIS_TYPE,CLASSIFICATION_TYPE,NORAD_CAT_ID,ELEMENT_SET_NO,REV_AT_EPOCH,BSTAR,MEAN_MOTION_DOT,MEAN_MOTION_DDOT
FLOCK 4BE-1,2024-149BC,2026-07-06T04:27:49.556736,15.43283335,.00041566,97.3772,272.4710,206.1703,153.9335,0,U,60518,999,10530,.4497566E-3,.19953E-3,0
FLOCK 4BE-28,2024-149BD,2026-07-05T18:47:44.938464,15.45662812,.00036217,97.3743,272.8436,197.6576,162.4548,0,U,60519,999,10531,.67796699E-3,.32701E-3,0
IPERDRONE.0,2024-149BE,2026-07-06T06:13:24.235392,15.69808668,.00042223,97.3767,281.4527,187.0911,173.0292,0,U,60520,999,10590,.77662499E-3,.93238E-3,0
TRANSPORTER-11 OBJECT BF,2024-149BF,2026-07-06T06:11:35.805984,15.98449621,.00076556,97.3749,284.8386,238.9621,121.0905,0,U,60521,999,10611,.12912438E-2,.599933E-2,.15856603E-3
CONNECTA IOT-2,2024-149BG,2026-07-06T03:42:59.846112,15.24143222,.00049208,97.3829,265.0145,251.6820,108.3883,0,U,60522,999,10478,.21540333E-3,.517E-4,0
CONNECTA IOT-4,2024-149BJ,2026-07-06T05:09:30.422880,15.42913282,.00052005,97.3789,271.8187,205.4759,154.6233,0,U,60524,999,10526,.49700211E-3,.21795E-3,0
ORESAT0.5,2024-149BK,2026-07-06T05:15:41.395104,15.45852358,.00054212,97.3716,273.5202,194.2143,165.8954,0,U,60525,999,10541,.45853923E-3,.22209E-3,0
DEIMOS,2024-149BL,2026-07-06T04:44:19.674816,15.44950615,.0005246,97.3774,273.6282,201.2871,158.8160,0,U,60526,999,10538,.45141472E-3,.21196E-3,0
CUAVA-2,2024-149BM,2026-07-06T04:00:27.642240,15.36583427,.00061013,97.3718,268.7232,212.1980,147.8893,0,U,60527,999,10508,.36326487E-3,.12906E-3,0
ERNST,2024-149BN,2026-07-06T05:09:32.373792,15.39732420,.0005358,97.3801,271.0835,212.0128,148.0793,0,U,60528,999,10520,.35158754E-3,.13835E-3,0
TORO,2024-149BQ,2026-07-06T03:54:33.118848,14.96500059,.00016034,97.6782,261.4766,95.3247,264.8157,0,U,60530,999,10279,.25873643E-3,.2882E-4,0
HYPSO-2,2024-149BR,2026-07-06T03:51:15.013152,14.98896191,.00018541,97.6818,263.1438,109.9176,250.2247,0,U,60531,999,10289,.32778191E-3,.3903E-4,0
LEMU NGE,2024-149BS,2026-07-06T04:38:58.134624,14.95034823,.00008452,97.6830,261.7698,44.6669,315.4620,0,U,60532,999,10279,.20623287E-3,.22E-4,0
LEMUR-2-STELLA,2024-149BT,2026-07-06T04:58:50.877120,15.12244663,.00012336,97.6729,269.7502,106.4142,253.7224,0,U,60533,999,10337,.64278147E-3,.11054E-3,0
SATELIOT_2,2024-149BU,2026-07-06T05:13:27.429312,14.96434070,.00018619,97.6816,261.8267,88.3830,271.7605,0,U,60534,999,10281,.24524501E-3,.2724E-4,0
NIGHTJAR,2024-149BV,2026-07-06T05:10:51.734784,14.99128169,.00018975,97.6820,263.6554,112.3235,247.8189,0,U,60535,999,14572,.30909689E-3,.3699E-4,0
LEMUR-2-MARHISYAM,2024-149BW,2026-07-06T04:40:43.214304,15.11655906,.00028719,97.6870,270.2058,83.2434,276.9123,0,U,60536,999,10335,.6311825E-3,.10677E-3,0
SATELIOT_4,2024-149BX,2026-07-06T03:47:13.414560,14.96739357,.0001771,97.6731,261.2824,31.7469,328.3859,0,U,60537,999,10281,.25765737E-3,.2888E-4,0
PICO-02A021,2024-149BY,2026-07-05T17:40:51.669696,15.03443637,.00033303,97.6751,265.4116,335.0584,25.0480,0,U,60538,999,10252,.52596792E-3,.7103E-4,0
ICEYE-X43,2024-149BZ,2026-07-06T04:16:15.184128,14.99762021,.00072454,97.6814,263.8878,25.2112,334.9464,0,U,60539,999,10296,.31697825E-3,.386E-4,0
HAWK-10A,2024-149CA,2026-07-06T03:48:15.087744,14.96574196,.00038012,97.6891,262.7439,34.9966,325.1505,0,U,60540,999,10282,.20231011E-3,.2245E-4,0
UMBRA-09,2024-149CB,2026-07-06T05:53:31.236288,15.18673760,.00015517,97.6963,274.7843,225.2573,134.8535,0,U,60541,999,10361,.86040233E-3,.17795E-3,0
QPS-SAR-8 (AMATERU-IV),2024-149CC,2026-07-06T05:14:55.254048,15.04343492,.00044261,97.6665,266.2106,66.3226,293.8464,0,U,60542,999,10313,.40103594E-3,.5532E-4,0
ARCTIC WEATHER SATELLITE,2024-149CD,2026-07-06T03:52:14.438208,14.89816647,.0003386,97.6793,257.0839,67.9668,292.1909,0,U,60543,999,10212,.1109607E-3,.1011E-4,0
CAPELLA-15 (ACADIA-5),2024-149CE,2026-07-06T03:54:35.080992,14.92384860,.00038553,97.6765,259.5920,16.7921,343.3426,0,U,60544,999,10268,.43711608E-3,.442E-4,0
HAWK-10B,2024-149CF,2026-07-06T05:24:19.811520,14.96574414,.00061597,97.6812,262.1455,44.4237,315.7478,0,U,60545,999,10283,.20352773E-3,.226E-4,0
ICEYE-X39,2024-149CG,2026-07-06T05:20:54.345408,15.00027624,.00069279,97.6762,263.9882,70.1715,290.0255,0,U,60546,999,10297,.372482E-3,.4579E-4,0
UMBRA-10,2024-149CH,2026-07-06T05:52:53.056128,15.18667014,.00009722,97.6972,274.8135,176.0984,184.0257,0,U,60547,999,10362,.85924854E-3,.17767E-3,0
ICEYE-X33,2024-149CJ,2026-07-06T10:28:19.030368,15.00914514,.00019266,97.7330,266.4777,77.3018,282.8421,0,U,60548,999,10309,.36111435E-3,.454E-4,0
ICEYE-X40,2024-149CK,2026-07-06T04:57:23.262336,14.98026024,.00046955,97.6782,263.3963,25.1737,334.9713,0,U,60549,999,10292,.18403471E-3,.2116E-4,0
