FLOCK 4BE-1             
1 60518U 24149BC  26187.18599024  .00019953  00000+0  44976-3 0  9991
2 60518  97.3772 272.4710 0004156 206.1703 153.9335 15.43283335105300
FLOCK 4BE-28            
1 60519U 24149BD  26186.78315901  .00032701  00000+0  67797-3 0  9999
2 60519  97.3743 272.8436 0003621 197.6576 162.4548 15.45662812105311
IPERDRONE.0             
1 60520U 24149BE  26187.25930828  .00093238  00000+0  77662-3 0  9999
2 60520  97.3767 281.4527 0004222 187.0911 173.0292 15.69808668105906
TRANSPORTER-11 OBJECT BF
1 60521U 24149BF  26187.25805331  .00599933  15857-3  12912-2 0  9999
2 60521  97.3749 284.8386 0007655 238.9621 121.0905 15.98449621106114
CONNECTA IOT-2          
1 60522U 24149BG  26187.15485933  .00005170  00000+0  21540-3 0  9994
2 60522  97.3829 265.0145 0004920 251.6820 108.3883 15.24143222104784
CONNECTA IOT-4          
1 60524U 24149BJ  26187.21493545  .00021795  00000+0  49700-3 0  9990
2 60524  97.3789 271.8187 0005200 205.4759 154.6233 15.42913282105260
ORESAT0.5               
1 60525U 24149BK  26187.21922911  .00022209  00000+0  45854-3 0  9992
2 60525  97.3716 273.5202 0005421 194.2143 165.8954 15.45852358105415
DEIMOS                  
1 60526U 24149BL  26187.19744994  .00021196  00000+0  45141-3 0  9996
2 60526  97.3774 273.6282 0005246 201.2871 158.8160 15.44950615105382
CUAVA-2                 
1 60527U 24149BM  26187.16698660  .00012906  00000+0  36326-3 0  9996
2 60527  97.3718 268.7232 0006101 212.1980 147.8893 15.36583427105086
ERNST                   
1 60528U 24149BN  26187.21495803  .00013835  00000+0  35159-3 0  9992
2 60528  97.3801 271.0835 0005358 212.0128 148.0793 15.39732420105200
TORO                    
1 60530U 24149BQ  26187.16288332  .00002882  00000+0  25874-3 0  9999
2 60530  97.6782 261.4766 0001603  95.3247 264.8157 14.96500059102798
HYPSO-2                 
1 60531U 24149BR  26187.16059043  .00003903  00000+0  32778-3 0  9991
2 60531  97.6818 263.1438 0001854 109.9176 250.2247 14.98896191102892
LEMU NGE                
1 60532U 24149BS  26187.19372841  .00002200  00000+0  20623-3 0  9994
2 60532  97.6830 261.7698 0000845  44.6669 315.4620 14.95034823102791
LEMUR-2-STELLA          
1 60533U 24149BT  26187.20753330  .00011054  00000+0  64278-3 0  9994
2 60533  97.6729 269.7502 0001233 106.4142 253.7224 15.12244663103370
SATELIOT_2              
1 60534U 24149BU  26187.21767858  .00002724  00000+0  24525-3 0  9991
2 60534  97.6816 261.8267 0001861  88.3830 271.7605 14.96434070102813
NIGHTJAR                
1 60535U 24149BV  26187.21587656  .00003699  00000+0  30910-3 0  9995
2 60535  97.6820 263.6554 0001897 112.3235 247.8189 14.99128169145724
LEMUR-2-MARHISYAM       
1 60536U 24149BW  26187.19494461  .00010677  00000+0  63118-3 0  9994
2 60536  97.6870 270.2058 0002871  83.2434 276.9123 15.11655906103356
SATELIOT_4              
1 60537U 24149BX  26187.15779415  .00002888  00000+0  25766-3 0  9998
2 60537  97.6731 261.2824 0001771  31.7469 328.3859 14.96739357102811
PICO-02A021             
1 60538U 24149BY  26186.73670914  .00007103  00000+0  52597-3 0  9993
2 60538  97.6751 265.4116 0003330 335.0584  25.0480 15.03443637102526
ICEYE-X43               
1 60539U 24149BZ  26187.17795352  .00003860  00000+0  31698-3 0  9992
2 60539  97.6814 263.8878 0007245  25.2112 334.9464 14.99762021102965
HAWK-10A                
1 60540U 24149CA  26187.15850796  .00002245  00000+0  20231-3 0  9993
2 60540  97.6891 262.7439 0003801  34.9966 325.1505 14.96574196102825
UMBRA-09                
1 60541U 24149CB  26187.24550042  .00017795  00000+0  86040-3 0  9991
2 60541  97.6963 274.7843 0001551 225.2573 134.8535 15.18673760103615
QPS-SAR-8 (AMATERU-IV)  
1 60542U 24149CC  26187.21869507  .00005532  00000+0  40104-3 0  9995
2 60542  97.6665 266.2106 0004426  66.3226 293.8464 15.04343492103131
ARCTIC WEATHER SATELLITE
1 60543U 24149CD  26187.16127822  .00001011  00000+0  11096-3 0  9993
2 60543  97.6793 257.0839 0003386  67.9668 292.1909 14.89816647102129
CAPELLA-15 (ACADIA-5)   
1 60544U 24149CE  26187.16290603  .00004420  00000+0  43712-3 0  9999
2 60544  97.6765 259.5920 0003855  16.7921 343.3426 14.92384860102687
HAWK-10B                
1 60545U 24149CF  26187.22522930  .00002260  00000+0  20353-3 0  9994
2 60545  97.6812 262.1455 0006159  44.4237 315.7478 14.96574414102839
ICEYE-X39               
1 60546U 24149CG  26187.22285122  .00004579  00000+0  37248-3 0  9990
2 60546  97.6762 263.9882 0006927  70.1715 290.0255 15.00027624102972
UMBRA-10                
1 60547U 24149CH  26187.24505852  .00017767  00000+0  85925-3 0  9996
2 60547  97.6972 274.8135 0000972 176.0984 184.0257 15.18667014103625
ICEYE-X33               
1 60548U 24149CJ  26187.43633137  .00004540  00000+0  36111-3 0  9994
2 60548  97.7330 266.4777 0001926  77.3018 282.8421 15.00914514103097
ICEYE-X40               
1 60549U 24149CK  26187.20651924  .00002116  00000+0  18403-3 0  9995
2 60549  97.6782 263.3963 0004695  25.1737 334.9713 14.98026024102926
